1 56323U 23058G   25332.02294566  .00000929  00000+0  76864-4 0  9990
2 56323  97.6059 330.6219 0000724 145.6808 214.4464 15.01262888142515
